ONEWEB-0578             
1 56067U 23043X   25198.29838461 -.00000028  00000+0 -99762-4 0  9990
2 56067  87.9274 310.7813 0001846 100.8868 259.2473 13.21826748113993
ONEWEB-0579             
1 56068U 23043Y   25198.36462067  .00000052  00000+0  93199-4 0  9997
2 56068  87.9273 310.7535 0002254 100.0334 260.1054 13.21824821114018
ONEWEB-0581             
1 56069U 23043Z   25198.30766256 -.00000012  00000+0 -65895-4 0  9999
2 56069  87.9052 295.5390 0002205 112.6439 247.4925 13.16594428114896
ONEWEB-0609             
1 56070U 23043AA  25198.37940547 -.00000053  00000+0 -17510-3 0  9990
2 56070  87.9076 325.9741 0001916  95.8503 264.2845 13.15548931112415
ONEWEB-0613             
1 56071U 23043AB  25198.37465289 -.00000028  00000+0 -10778-3 0  9997
2 56071  87.9082 325.9871 0002129  98.1519 261.9853 13.15549129112410
ONEWEB-0630             
1 56072U 23043AC  25198.36988929  .00000014  00000+0  21311-5 0  9998
2 56072  87.9078 325.9647 0002191  94.6121 265.5260 13.15549658112404
ONEWEB-0632             
1 56073U 23043AD  25198.36513780  .00000082  00000+0  18395-3 0  9999
2 56073  87.9079 325.9855 0002035 104.0506 256.0851 13.15550056112402
ONEWEB-0633             
1 56074U 23043AE  25198.35878451  .00000127  00000+0  30297-3 0  9993
2 56074  87.9075 325.9536 0002217  89.8182 270.3202 13.15550534112384
